NORAD_CAT_ID,OBJECT_NAME,OBJECT_TYPE,EPOCH,MEAN_MOTION,ECCENTRICITY,INCLINATION,RA_OF_ASC_NODE,ARG_OF_PERICENTER,MEAN_ANOMALY,BSTAR,MEAN_MOTION_DOT,MEAN_MOTION_DDOT,TLE_LINE0,TLE_LINE1,TLE_LINE2,SEMIMAJOR_AXIS,PERIOD,APOGEE,PERIGEE,DECAYED
53265.0,STARLINK-4097,PAYLOAD,2024-02-19 03:38:25,15.08855818,0.0001462,53.2187,318.9228,90.4637,269.6522,3.5893e-05,2.84e-06,0.0,0 STARLINK-4097,1 53265U 22086Z   24050.15168853  .00000284  00000-0  35893-4 0  9993,2 53265  53.2187 318.9228 0001462  90.4637 269.6522 15.08855818 87730,6917.832,95.437,540.708,538.686,0.0
53265.0,STARLINK-4097,PAYLOAD,2024-02-19 17:56:55,15.08829243,0.0001566,53.2187,316.245,104.1093,256.0073,-3.8832e-05,-9.06e-06,0.0,0 STARLINK-4097,1 53265U 22086Z   24050.74786926 -.00000906  00000-0 -38832-4 0  9994,2 53265  53.2187 316.2450 0001566 104.1093 256.0073 15.08829243 87826,6917.913,95.438,540.862,538.695,0.0
53265.0,STARLINK-4097,PAYLOAD,2024-02-19 22:43:05,15.08827689,0.000147,53.2185,315.353,111.5014,248.6135,-4.8476e-05,-1.059e-05,0.0,0 STARLINK-4097,1 53265U 22086Z   24050.94659093 -.00001059  00000-0 -48476-4 0  9995,2 53265  53.2185 315.3530 0001470 111.5014 248.6135 15.08827689 88034,6917.918,95.438,540.8,538.766,0.0
53265.0,STARLINK-4097,PAYLOAD,2024-02-20 00:18:28,15.08831704,0.000141,53.2183,315.0582,104.8401,255.2747,-0.00011632,-2.138e-05,0.0,0 STARLINK-4097,1 53265U 22086Z   24051.01283119 -.00002138  00000-0 -11632-3 0  9998,2 53265  53.2183 315.0582 0001410 104.8401 255.2747 15.08831704 88042,6917.906,95.438,540.746,538.795,0.0
53265.0,STARLINK-4097,PAYLOAD,2024-02-20 22:33:51,15.08840472,0.0001348,53.2185,310.8942,100.9741,259.1403,7.8415e-05,9.6e-06,0.0,0 STARLINK-4097,1 53265U 22086Z   24051.94018435  .00000960  00000-0  78415-4 0  9999,2 53265  53.2185 310.8942 0001348 100.9741 259.1403 15.08840472 88180,6917.879,95.438,540.676,538.811,0.0
53265.0,STARLINK-4097,PAYLOAD,2024-02-21 00:09:14,15.08846595,0.0001312,53.2178,310.5966,99.6776,260.4365,8.0572e-05,9.95e-06,0.0,0 STARLINK-4097,1 53265U 22086Z   24052.00642077  .00000995  00000-0  80572-4 0  9997,2 53265  53.2178 310.5966 0001312  99.6776 260.4365 15.08846595 88014,6917.86,95.437,540.633,538.818,0.0
53265.0,STARLINK-4097,PAYLOAD,2024-02-21 22:24:39,15.08835133,0.000157,53.2182,306.4386,110.6812,249.4349,0.00024044,3.54e-05,0.0,0 STARLINK-4097,1 53265U 22086Z   24052.93378673  .00003540  00000-0  24044-3 0  9997,2 53265  53.2182 306.4386 0001570 110.6812 249.4349 15.08835133 88330,6917.895,95.438,540.846,538.674,0.0
53265.0,STARLINK-4097,PAYLOAD,2024-02-22 01:35:25,15.08838709,0.0001331,53.2182,305.8414,98.7326,261.3817,0.00025153,3.717e-05,0.0,0 STARLINK-4097,1 53265U 22086Z   24053.06626582  .00003717  00000-0  25153-3 0  9995,2 53265  53.2182 305.8414 0001331  98.7326 261.3817 15.08838709 88173,6917.884,95.438,540.67,538.829,0.0
53265.0,STARLINK-4097,PAYLOAD,2024-02-22 09:32:21,15.08840831,0.0001458,53.2174,304.3519,79.7711,280.3445,0.00010817,1.434e-05,0.0,0 STARLINK-4097,1 53265U 22086Z   24053.39746640  .00001434  00000-0  10817-3 0  9994,2 53265  53.2174 304.3519 0001458  79.7711 280.3445 15.08840831 88404,6917.878,95.438,540.751,538.734,0.0
53265.0,STARLINK-4097,PAYLOAD,2024-02-22 22:15:26,15.08835583,0.0001392,53.2177,301.9727,90.3012,269.8139,0.00019685,2.846e-05,0.0,0 STARLINK-4097,1 53265U 22086Z   24053.92738756  .00002846  00000-0  19685-3 0  9992,2 53265  53.2177 301.9727 0001392  90.3012 269.8139 15.08835583 88489,6917.894,95.438,540.722,538.796,0.0
53265.0,STARLINK-4097,PAYLOAD,2024-02-23 09:23:07,15.08850196,0.0001468,53.218,299.8918,83.5939,276.522,5.3698e-05,5.67e-06,0.0,0 STARLINK-4097,1 53265U 22086Z   24054.39106034  .00000567  00000-0  53698-4 0  9993,2 53265  53.2180 299.8918 0001468  83.5939 276.5220 15.08850196 88377,6917.849,95.437,540.73,538.699,0.0
53265.0,STARLINK-4097,PAYLOAD,2024-02-23 20:30:50,15.0884108,0.0001566,53.2181,297.8133,86.3903,273.7269,-2.636e-06,-3.3e-06,0.0,0 STARLINK-4097,1 53265U 22086Z   24054.85474831 -.00000330  00000-0 -26360-5 0  9994,2 53265  53.2181 297.8133 0001566  86.3903 273.7269 15.08841080 88448,6917.877,95.437,540.825,538.659,0.0
53265.0,STARLINK-4097,PAYLOAD,2024-02-23 22:06:13,15.0883904,0.0001605,53.2182,297.5153,99.6403,260.4771,-5.4396e-07,-2.97e-06,0.0,0 STARLINK-4097,1 53265U 22086Z   24054.92098845 -.00000297  00000-0 -54396-6 0  9992,2 53265  53.2182 297.5153 0001605  99.6403 260.4771 15.08839040 88639,6917.883,95.438,540.859,538.638,0.0
53265.0,STARLINK-4097,PAYLOAD,2024-02-24 09:13:55,15.08840961,0.0001428,53.2177,295.4332,88.4193,271.6963,3.4258e-05,2.57e-06,0.0,0 STARLINK-4097,1 53265U 22086Z   24055.38466585  .00000257  00000-0  34258-4 0  9990,2 53265  53.2177 295.4332 0001428  88.4193 271.6963 15.08840961 88703,6917.877,95.437,540.73,538.755,0.0
53265.0,STARLINK-4097,PAYLOAD,2024-02-24 21:56:59,15.08844403,0.0001462,53.2173,293.0545,89.6172,270.4988,6.8472e-05,8.02e-06,0.0,0 STARLINK-4097,1 53265U 22086Z   24055.91458258  .00000802  00000-0  68472-4 0  9998,2 53265  53.2173 293.0545 0001462  89.6172 270.4988 15.08844403 88784,6917.867,95.437,540.743,538.721,0.0
53265.0,STARLINK-4097,PAYLOAD,2024-02-25 01:07:45,15.08849107,0.0001439,53.2172,292.4596,103.3755,256.7397,4.0811e-05,3.62e-06,0.0,0 STARLINK-4097,1 53265U 22086Z   24056.04705939  .00000362  00000-0  40811-4 0  9992,2 53265  53.2172 292.4596 0001439 103.3755 256.7397 15.08849107 88627,6917.853,95.437,540.713,538.722,0.0
53265.0,STARLINK-4097,PAYLOAD,2024-02-25 09:04:41,15.08845352,0.0001524,53.2178,290.9728,83.365,276.7516,4.5512e-05,4.36e-06,0.0,0 STARLINK-4097,1 53265U 22086Z   24056.37826184  .00000436  00000-0  45512-4 0  9999,2 53265  53.2178 290.9728 0001524  83.3650 276.7516 15.08845352 88857,6917.864,95.437,540.783,538.675,0.0
53265.0,STARLINK-4097,PAYLOAD,2024-02-25 20:12:23,15.08839245,0.0001406,53.218,288.8917,85.9332,274.1821,0.00013432,1.85e-05,0.0,0 STARLINK-4097,1 53265U 22086Z   24056.84194303  .00001850  00000-0  13432-3 0  9998,2 53265  53.2180 288.8917 0001406  85.9332 274.1821 15.08839245 88743,6917.883,95.438,540.72,538.775,0.0
53265.0,STARLINK-4097,PAYLOAD,2024-02-25 21:47:46,15.0884763,0.0001493,53.2168,288.59,112.1974,247.9177,8.3488e-05,1.041e-05,0.0,0 STARLINK-4097,1 53265U 22086Z   24056.90817723  .00001041  00000-0  83488-4 0  9994,2 53265  53.2168 288.5900 0001493 112.1974 247.9177 15.08847630 88939,6917.857,95.437,540.755,538.689,0.0
53265.0,STARLINK-4097,PAYLOAD,2024-02-26 00:58:32,15.0884991,0.0001508,53.2171,287.995,113.2475,246.8676,9.5232e-05,1.228e-05,0.0,0 STARLINK-4097,1 53265U 22086Z   24057.04065544  .00001228  00000-0  95232-4 0  9993,2 53265  53.2171 287.9950 0001508 113.2475 246.8676 15.08849910 88773,6917.85,95.437,540.758,538.672,0.0
53265.0,STARLINK-4097,PAYLOAD,2024-02-26 20:03:11,15.08836744,0.0001464,53.2171,284.4318,93.0965,267.0195,-1.6675e-07,-2.91e-06,0.0,0 STARLINK-4097,1 53265U 22086Z   24057.83554851 -.00000291  00000-0 -16675-6 0  9991,2 53265  53.2171 284.4318 0001464  93.0965 267.0195 15.08836744 88898,6917.89,95.438,540.768,538.743,0.0
53265.0,STARLINK-4097,PAYLOAD,2024-02-26 21:38:34,15.0883959,0.0001516,53.2162,284.1298,111.9315,248.1838,1.4341e-05,-6e-07,0.0,0 STARLINK-4097,1 53265U 22086Z   24057.90178541 -.00000060  00000-0  14341-4 0  9996,2 53265  53.2162 284.1298 0001516 111.9315 248.1838 15.08839590 89087,6917.882,95.438,540.795,538.698,0.0
53265.0,STARLINK-4097,PAYLOAD,2024-02-27 00:49:20,15.0883779,0.0001485,53.2154,283.5364,100.1101,260.0059,3.1952e-05,2.21e-06,0.0,0 STARLINK-4097,1 53265U 22086Z   24058.03426705  .00000221  00000-0  31952-4 0  9994,2 53265  53.2154 283.5364 0001485 100.1101 260.0059 15.08837790 89104,6917.887,95.438,540.779,538.725,0.0
53265.0,STARLINK-4097,PAYLOAD,2024-02-27 21:29:21,15.08839789,0.0001344,53.216,279.6713,99.9239,260.1904,-5.1697e-06,-3.7e-06,0.0,0 STARLINK-4097,1 53265U 22086Z   24058.89538878 -.00000370  00000-0 -51697-5 0  9999,2 53265  53.2160 279.6713 0001344  99.9239 260.1904 15.08839789 89230,6917.881,95.438,540.676,538.816,0.0
53265.0,STARLINK-4097,PAYLOAD,2024-02-28 14:58:36,15.08829953,0.0001413,53.2164,276.4011,100.8635,259.2516,5.0103e-05,5.09e-06,0.0,0 STARLINK-4097,1 53265U 22086Z   24059.62403634  .00000509  00000-0  50103-4 0  9994,2 53265  53.2164 276.4011 0001413 100.8635 259.2516 15.08829953 89341,6917.911,95.438,540.754,538.799,0.0
53265.0,STARLINK-4097,PAYLOAD,2024-02-28 19:44:46,15.0883107,0.000141,53.2165,275.5092,100.9451,259.1699,5.3783e-05,5.68e-06,0.0,0 STARLINK-4097,1 53265U 22086Z   24059.82275656  .00000568  00000-0  53783-4 0  9999,2 53265  53.2165 275.5092 0001410 100.9451 259.1699 15.08831070 89192,6917.908,95.438,540.748,538.797,0.0
53265.0,STARLINK-4097,PAYLOAD,2024-02-28 21:20:09,15.0883407,0.0001519,53.2167,275.2132,106.7558,253.3601,5.2551e-05,5.48e-06,0.0,0 STARLINK-4097,1 53265U 22086Z   24059.88899479  .00000548  00000-0  52551-4 0  9990,2 53265  53.2167 275.2132 0001519 106.7558 253.3601 15.08834070 89381,6917.899,95.438,540.814,538.713,0.0
53265.0,STARLINK-4097,PAYLOAD,2024-02-29 06:52:28,15.08835863,0.0001467,53.2166,273.4289,107.9263,252.1889,5.6473e-05,6.11e-06,0.0,0 STARLINK-4097,1 53265U 22086Z   24060.28643532  .00000611  00000-0  56473-4 0  9991,2 53265  53.2166 273.4289 0001467 107.9263 252.1889 15.08835863 89444,6917.893,95.438,540.773,538.743,0.0
53265.0,STARLINK-4097,PAYLOAD,2024-02-29 21:10:54,15.08856011,0.0001271,53.2162,270.7524,99.9742,260.1394,0.0002315,3.4e-05,0.0,0 STARLINK-4097,1 53265U 22086Z   24060.88257875  .00003400  00000-0  23150-3 0  9992,2 53265  53.2162 270.7524 0001271  99.9742 260.1394 15.08856011 89355,6917.831,95.437,540.576,538.817,0.0
53265.0,STARLINK-4097,PAYLOAD,2024-03-01 00:21:40,15.08864856,0.0001157,53.2156,270.1538,84.7224,275.39,0.00028321,4.225e-05,0.0,0 STARLINK-4097,1 53265U 22086Z   24061.01505024  .00004225  00000-0  28321-3 0  9991,2 53265  53.2156 270.1538 0001157  84.7224 275.3900 15.08864856 89376,6917.804,95.436,540.47,538.869,0.0
